start=new Date('2022-01-05T00:00:00.000Z').valueOf();
sats=[{"MEAN_ANOMALY":"291.5316","TLE_LINE2":"2 49162  69.9983 178.9604 0003397 286.2667 291.5316 14.98319859 18757","SEMIMAJOR_AXIS":"6950.224","CENTER_NAME":"EARTH","RA_OF_ASC_NODE":"178.9604","PERIOD":"96.108","RCS_SIZE":"LARGE","REV_AT_EPOCH":"1875","ARG_OF_PERICENTER":"286.2667","PERIAPSIS":"569.728","OBJECT_TYPE":"PAYLOAD","MEAN_MOTION_DDOT":"0.0000000000000","REF_FRAME":"TEME","SITE":"AFWTR","MEAN_MOTION_DOT":"0.00037898","APOAPSIS":"574.450","ELEMENT_SET_NO":"999","MEAN_MOTION":"14.98319859","GP_ID":"193191073","CLASSIFICATION_TYPE":"U","EPHEMERIS_TYPE":"0","NORAD_CAT_ID":"49162","FILE":"3263850","TIME_SYSTEM":"UTC","EPOCH":"2022-01-04T22:00:00.999936","OBJECT_ID":"2021-082AJ","TLE_LINE1":"1 49162U 21082AJ  22004.91667824  .00037898  00000-0  31676-2 0  9996","MEAN_ELEMENT_THEORY":"SGP4","BSTAR":"0.00316760000000","INCLINATION":"69.9983","OBJECT_NAME":"STARLINK-3082","ECCENTRICITY":"0.00033970","DECAY_DATE":null,"LAUNCH_DATE":"2021-09-14","COUNTRY_CODE":"US"},{"MEAN_ANOMALY":"133.9155","TLE_LINE2":"2 49163  69.9992 169.7722 0003403 278.9488 133.9155 15.69718587 18978","CENTER_NAME":"EARTH","SEMIMAJOR_AXIS":"6737.839","RA_OF_ASC_NODE":"169.7722","PERIOD":"91.736","RCS_SIZE":"LARGE","PERIAPSIS":"357.411","REV_AT_EPOCH":"1897","ARG_OF_PERICENTER":"278.9488","OBJECT_TYPE":"PAYLOAD","MEAN_MOTION_DDOT":"0.0000000000000","REF_FRAME":"TEME","SITE":"AFWTR","ELEMENT_SET_NO":"999","MEAN_MOTION_DOT":"0.00032980","APOAPSIS":"361.997","NORAD_CAT_ID":"49163","EPHEMERIS_TYPE":"0","GP_ID":"193190595","CLASSIFICATION_TYPE":"U","MEAN_MOTION":"15.69718587","FILE":"3263851","TIME_SYSTEM":"UTC","OBJECT_ID":"2021-082AK","EPOCH":"2022-01-04T22:00:00.999936","MEAN_ELEMENT_THEORY":"SGP4","TLE_LINE1":"1 49163U 21082AK  22004.91667824  .00032980  00000-0  27731-3 0  9992","BSTAR":"0.00027731000000","ECCENTRICITY":"0.00034030","OBJECT_NAME":"STARLINK-3088","INCLINATION":"69.9992","LAUNCH_DATE":"2021-09-14","COUNTRY_CODE":"US","DECAY_DATE":null},{"FILE":"3263852","GP_ID":"193190607","MEAN_MOTION":"15.69715303","CLASSIFICATION_TYPE":"U","NORAD_CAT_ID":"49164","EPHEMERIS_TYPE":"0","EPOCH":"2022-01-04T22:00:00.999936","OBJECT_ID":"2021-082AL","TIME_SYSTEM":"UTC","BSTAR":"0.00026162000000","TLE_LINE1":"1 49164U 21082AL  22004.91667824  .00031090  00000-0  26162-3 0  9991","MEAN_ELEMENT_THEORY":"SGP4","DECAY_DATE":null,"LAUNCH_DATE":"2021-09-14","COUNTRY_CODE":"US","INCLINATION":"69.9991","OBJECT_NAME":"STARLINK-3106","ECCENTRICITY":"0.00032940","SEMIMAJOR_AXIS":"6737.849","CENTER_NAME":"EARTH","TLE_LINE2":"2 49164  69.9991 169.7606 0003294 281.4042 142.0990 15.69715303 18973","MEAN_ANOMALY":"142.0990","ARG_OF_PERICENTER":"281.4042","REV_AT_EPOCH":"1897","PERIAPSIS":"357.494","RCS_SIZE":"LARGE","RA_OF_ASC_NODE":"169.7606","PERIOD":"91.736","REF_FRAME":"TEME","MEAN_MOTION_DDOT":"0.0000000000000","OBJECT_TYPE":"PAYLOAD","APOAPSIS":"361.933","MEAN_MOTION_DOT":"0.00031090","ELEMENT_SET_NO":"999","SITE":"AFWTR"},{"TIME_SYSTEM":"UTC","OBJECT_ID":"2021-082AM","EPOCH":"2022-01-04T22:00:00.999936","FILE":"3263718","NORAD_CAT_ID":"49165","EPHEMERIS_TYPE":"0","GP_ID":"193188325","CLASSIFICATION_TYPE":"U","MEAN_MOTION":"14.98317644","COUNTRY_CODE":"US","LAUNCH_DATE":"2021-09-14","DECAY_DATE":null,"ECCENTRICITY":"0.00034560","INCLINATION":"69.9983","OBJECT_NAME":"STARLINK-3052","BSTAR":"0.00298170000000","MEAN_ELEMENT_THEORY":"SGP4","TLE_LINE1":"1 49165U 21082AM  22004.91667824  .00035655  00000-0  29817-2 0  9992","PERIAPSIS":"569.694","REV_AT_EPOCH":"1879","ARG_OF_PERICENTER":"275.9038","PERIOD":"96.108","RA_OF_ASC_NODE":"178.9598","RCS_SIZE":"LARGE","CENTER_NAME":"EARTH","SEMIMAJOR_AXIS":"6950.231","MEAN_ANOMALY":"327.5638","TLE_LINE2":"2 49165  69.9983 178.9598 0003456 275.9038 327.5638 14.98317644 18796","ELEMENT_SET_NO":"999","MEAN_MOTION_DOT":"0.00035655","APOAPSIS":"574.498","SITE":"AFWTR","MEAN_MOTION_DDOT":"0.0000000000000","REF_FRAME":"TEME","OBJECT_TYPE":"PAYLOAD"},{"TIME_SYSTEM":"UTC","EPOCH":"2022-01-04T20:12:38.127744","OBJECT_ID":"2021-082AN","FILE":"3264067","NORAD_CAT_ID":"49166","EPHEMERIS_TYPE":"0","GP_ID":"193218213","MEAN_MOTION":"15.69751157","CLASSIFICATION_TYPE":"U","LAUNCH_DATE":"2021-09-14","COUNTRY_CODE":"US","DECAY_DATE":null,"ECCENTRICITY":"0.00033680","INCLINATION":"69.9985","OBJECT_NAME":"STARLINK-3089","BSTAR":"0.00016120000000","MEAN_ELEMENT_THEORY":"SGP4","TLE_LINE1":"1 49166U 21082AN  22004.84210796  .00019076  00000-0  16120-3 0  9990","PERIAPSIS":"357.342","REV_AT_EPOCH":"1899","ARG_OF_PERICENTER":"280.4208","PERIOD":"91.734","RA_OF_ASC_NODE":"169.9693","RCS_SIZE":"LARGE","CENTER_NAME":"EARTH","SEMIMAJOR_AXIS":"6737.746","MEAN_ANOMALY":"79.6607","TLE_LINE2":"2 49166  69.9985 169.9693 0003368 280.4208  79.6607 15.69751157 18990","ELEMENT_SET_NO":"999","MEAN_MOTION_DOT":"0.00019076","APOAPSIS":"361.880","SITE":"AFWTR","MEAN_MOTION_DDOT":"0.0000000000000","REF_FRAME":"TEME","OBJECT_TYPE":"PAYLOAD"},{"BSTAR":"0.00280950000000","TLE_LINE1":"1 49167U 21082AP  22004.91667824  .00033570  00000-0  28095-2 0  9995","MEAN_ELEMENT_THEORY":"SGP4","DECAY_DATE":null,"LAUNCH_DATE":"2021-09-14","COUNTRY_CODE":"US","INCLINATION":"69.9979","OBJECT_NAME":"STARLINK-3054","ECCENTRICITY":"0.00031590","FILE":"3263721","MEAN_MOTION":"14.98305896","GP_ID":"193188364","CLASSIFICATION_TYPE":"U","EPHEMERIS_TYPE":"0","NORAD_CAT_ID":"49167","EPOCH":"2022-01-04T22:00:00.999936","OBJECT_ID":"2021-082AP","TIME_SYSTEM":"UTC","REF_FRAME":"TEME","MEAN_MOTION_DDOT":"0.0000000000000","OBJECT_TYPE":"PAYLOAD","APOAPSIS":"574.328","MEAN_MOTION_DOT":"0.00033570","ELEMENT_SET_NO":"999","SITE":"AFWTR","SEMIMAJOR_AXIS":"6950.267","CENTER_NAME":"EARTH","TLE_LINE2":"2 49167  69.9979 178.9465 0003159 271.5140 357.6635 14.98305896 18799","MEAN_ANOMALY":"357.6635","ARG_OF_PERICENTER":"271.5140","REV_AT_EPOCH":"1879","PERIAPSIS":"569.937","RCS_SIZE":"LARGE","PERIOD":"96.109","RA_OF_ASC_NODE":"178.9465"},{"FILE":"3264067","GP_ID":"193217211","CLASSIFICATION_TYPE":"U","MEAN_MOTION":"15.69760529","NORAD_CAT_ID":"49168","EPHEMERIS_TYPE":"0","EPOCH":"2022-01-04T20:10:27.719040","OBJECT_ID":"2021-082AQ","TIME_SYSTEM":"UTC","BSTAR":"0.00003143300000","TLE_LINE1":"1 49168U 21082AQ  22004.84059860  .00003543  00000-0  31433-4 0  9992","MEAN_ELEMENT_THEORY":"SGP4","DECAY_DATE":null,"LAUNCH_DATE":"2021-09-14","COUNTRY_CODE":"US","OBJECT_NAME":"STARLINK-3101","INCLINATION":"70.0001","ECCENTRICITY":"0.00035270","SEMIMAJOR_AXIS":"6737.719","CENTER_NAME":"EARTH","TLE_LINE2":"2 49168  70.0001 169.9629 0003527 276.1979  83.8815 15.69760529 18998","MEAN_ANOMALY":"83.8815","ARG_OF_PERICENTER":"276.1979","REV_AT_EPOCH":"1899","PERIAPSIS":"357.208","RCS_SIZE":"LARGE","PERIOD":"91.734","RA_OF_ASC_NODE":"169.9629","REF_FRAME":"TEME","MEAN_MOTION_DDOT":"0.0000000000000","OBJECT_TYPE":"PAYLOAD","APOAPSIS":"361.961","MEAN_MOTION_DOT":"0.00003543","ELEMENT_SET_NO":"999","SITE":"AFWTR"},{"COUNTRY_CODE":"US","LAUNCH_DATE":"2021-09-14","DECAY_DATE":null,"ECCENTRICITY":"0.00028980","INCLINATION":"69.9999","OBJECT_NAME":"STARLINK-3046","BSTAR":"-0.00002315200000","MEAN_ELEMENT_THEORY":"SGP4","TLE_LINE1":"1 49169U 21082AR  22004.84135780 -.00002973  00000-0 -23152-4 0  9996","TIME_SYSTEM":"UTC","OBJECT_ID":"2021-082AR","EPOCH":"2022-01-04T20:11:33.313920","FILE":"3264067","EPHEMERIS_TYPE":"0","NORAD_CAT_ID":"49169","GP_ID":"193217963","CLASSIFICATION_TYPE":"U","MEAN_MOTION":"15.69741057","ELEMENT_SET_NO":"999","MEAN_MOTION_DOT":"-0.00002973","APOAPSIS":"361.592","SITE":"AFWTR","MEAN_MOTION_DDOT":"0.0000000000000","REF_FRAME":"TEME","OBJECT_TYPE":"PAYLOAD","PERIAPSIS":"357.687","REV_AT_EPOCH":"1779","ARG_OF_PERICENTER":"267.7607","PERIOD":"91.735","RA_OF_ASC_NODE":"169.9684","RCS_SIZE":"LARGE","CENTER_NAME":"EARTH","SEMIMAJOR_AXIS":"6737.775","MEAN_ANOMALY":"92.3257","TLE_LINE2":"2 49169  69.9999 169.9684 0002898 267.7607  92.3257 15.69741057 17794"},{"EPOCH":"2022-01-04T22:00:00.999936","OBJECT_ID":"2021-082AS","TIME_SYSTEM":"UTC","NORAD_CAT_ID":"49170","EPHEMERIS_TYPE":"0","GP_ID":"193189311","CLASSIFICATION_TYPE":"U","MEAN_MOTION":"14.98310039","FILE":"3263751","ECCENTRICITY":"0.00031450","OBJECT_NAME":"STARLINK-3074","INCLINATION":"69.9993","COUNTRY_CODE":"US","LAUNCH_DATE":"2021-09-14","DECAY_DATE":null,"MEAN_ELEMENT_THEORY":"SGP4","TLE_LINE1":"1 49170U 21082AS  22004.91667824  .00035404  00000-0  29615-2 0  9996","BSTAR":"0.00296150000000","RCS_SIZE":"LARGE","RA_OF_ASC_NODE":"178.9461","PERIOD":"96.108","PERIAPSIS":"569.934","ARG_OF_PERICENTER":"275.5666","REV_AT_EPOCH":"1758","TLE_LINE2":"2 49170  69.9993 178.9461 0003145 275.5666 133.3008 14.98310039 17581","MEAN_ANOMALY":"133.3008","CENTER_NAME":"EARTH","SEMIMAJOR_AXIS":"6950.255","SITE":"AFWTR","ELEMENT_SET_NO":"999","APOAPSIS":"574.305","MEAN_MOTION_DOT":"0.00035404","OBJECT_TYPE":"PAYLOAD","REF_FRAME":"TEME","MEAN_MOTION_DDOT":"0.0000000000000"},{"EPHEMERIS_TYPE":"0","NORAD_CAT_ID":"49171","CLASSIFICATION_TYPE":"U","GP_ID":"193192118","MEAN_MOTION":"14.98303268","FILE":"3263945","TIME_SYSTEM":"UTC","OBJECT_ID":"2021-082AT","EPOCH":"2022-01-04T22:00:00.999936","MEAN_ELEMENT_THEORY":"SGP4","TLE_LINE1":"1 49171U 21082AT  22004.91667824  .00031777  00000-0  26607-2 0  9994","BSTAR":"0.00266070000000","ECCENTRICITY":"0.00031070","INCLINATION":"69.9996","OBJECT_NAME":"STARLINK-3107","LAUNCH_DATE":"2021-09-14","COUNTRY_CODE":"US","DECAY_DATE":null,"MEAN_ANOMALY":"31.7415","TLE_LINE2":"2 49171  69.9996 178.9473 0003107 274.3422  31.7415 14.98303268 18730","CENTER_NAME":"EARTH","SEMIMAJOR_AXIS":"6950.276","PERIOD":"96.109","RA_OF_ASC_NODE":"178.9473","RCS_SIZE":"LARGE","PERIAPSIS":"569.981","REV_AT_EPOCH":"1873","ARG_OF_PERICENTER":"274.3422","OBJECT_TYPE":"PAYLOAD","MEAN_MOTION_DDOT":"0.0000000000000","REF_FRAME":"TEME","SITE":"AFWTR","ELEMENT_SET_NO":"999","MEAN_MOTION_DOT":"0.00031777","APOAPSIS":"574.300"}];
